STARLINK S              
1 53604U 22104S   22246.25001157 -.01220963  41878-3 -45344-2 0  9992
2 53604  53.2179 257.9596 0026604  58.3466  35.7317 15.86817305   998
STARLINK T              
1 53605U 22104T   22246.25001157 -.01127723  36196-3 -42238-2 0  9999
2 53605  53.2177 257.9615 0025740  58.4490  34.2908 15.86668515   994
STARLINK U              
1 53606U 22104U   22245.58334491 -.01375552  52961-3 -45747-2 0  9996
2 53606  53.2171 261.3286 0032479  56.4539 186.3229 15.88735506   881
STARLINK V              
1 53607U 22104V   22245.58334491 -.01375000  52866-3 -45928-2 0  9990
2 53607  53.2171 261.3317 0033012  56.5216 184.5462 15.88620033   881
STARLINK W              
1 53608U 22104W   22246.25001157 -.01243957  43351-3 -46065-2 0  9993
2 53608  53.2178 257.9579 0026490  58.3275  36.5519 15.86884450   991
STARLINK X              
1 53609U 22104X   22246.25001157 -.01127033  36189-3 -42011-2 0  9998
2 53609  53.2178 257.9585 0025618  58.1454  36.2494 15.86770059   995
STARLINK Y              
1 53610U 22104Y   22245.58334491 -.01375390  52945-3 -45700-2 0  9992
2 53610  53.2171 261.3296 0032980  56.4157 185.9921 15.88724854   888
STARLINK Z              
1 53611U 22104Z   22246.25001157 -.01240148  43101-3 -45919-2 0  9996
2 53611  53.2178 257.9580 0026989  58.5980  36.0356 15.86863186   992
STARLINK AA             
1 53612U 22104AA  22246.25001157 -.01273590  45291-3 -46877-2 0  9990
2 53612  53.2178 257.9552 0027065  58.8265  37.4410 15.86985244   993
STARLINK AB             
1 53613U 22104AB  22246.25001157 -.01230957  42530-3 -45530-2 0  9999
2 53613  53.2178 257.9569 0026928  58.5402  36.7380 15.86885893   996
STARLINK AC             
1 53614U 22104AC  22243.58334491  .00236092  33813-4  37099-3 0  9993
2 53614  53.2179 271.4719 0075172  55.1447 253.3172 15.98021498   568
STARLINK AD             
1 53615U 22104AD  22246.25001157  .00347965  62410-4  49544-3 0  9996
2 53615  53.2176 257.7550 0070691  64.8473 126.8126 16.00060578   999
STARLINK AE             
1 53616U 22104AE  22246.25001157 -.01333086  54158-3 -25378-2 0  9996
2 53616  53.2175 257.7810 0057440  61.5890 123.7477 15.96848707   999
STARLINK AF             
1 53617U 22104AF  22245.58334491 -.01375713  53000-3 -45586-2 0  9993
2 53617  53.2171 261.3274 0032747  56.2549 187.1055 15.88791609   889
STARLINK AG             
1 53618U 22104AG  22245.58334491 -.01375779  53038-3 -45350-2 0  9996
2 53618  53.2171 261.3259 0033359  56.5465 187.7479 15.88858833   882
STARLINK AH             
1 53619U 22104AH  22245.58334491 -.01375637  53005-3 -45452-2 0  9997
2 53619  53.2171 261.3270 0033390  56.4053 187.1291 15.88811152   882
STARLINK AJ             
1 53620U 22104AJ  22245.58334491 -.01376076  53076-3 -45389-2 0  9994
2 53620  53.2171 261.3252 0032525  56.1831 188.5443 15.88894020   883
STARLINK AK             
1 53621U 22104AK  22245.58334491 -.01375910  53039-3 -45490-2 0  9993
2 53621  53.2171 261.3260 0032644  56.2441 187.8303 15.88841488   880
STARLINK AL             
1 53622U 22104AL  22245.58334491 -.01375930  53084-3 -45150-2 0  9999
2 53622  53.2171 261.3243 0033661  56.5269 188.6183 15.88929631   885
STARLINK AM             
1 53623U 22104AM  22245.58334491 -.01376008  53063-3 -45414-2 0  9997
2 53623  53.2171 261.3252 0032621  56.1473 188.3553 15.88876860   887
STARLINK AN             
1 53624U 22104AN  22245.58334491 -.01376125  53104-3 -45213-2 0  9991
2 53624  53.2171 261.3237 0033032  56.3941 189.0872 15.88941679   883
STARLINK AP             
1 53625U 22104AP  22245.58334491 -.01375968  53077-3 -45247-2 0  9992
2 53625  53.2171 261.3243 0033268  56.3957 188.5547 15.88911172   887
STARLINK AQ             
1 53626U 22104AQ  22245.58334491 -.01376170  53132-3 -45005-2 0  9993
2 53626  53.2171 261.3224 0033715  56.4429 189.7183 15.88992582   882
STARLINK AR             
1 53627U 22104AR  22245.58334491 -.01376113  53112-3 -45107-2 0  9992
2 53627  53.2171 261.3229 0033495  56.4068 189.2605 15.88960515   887
STARLINK AS             
1 53628U 22104AS  22245.58334491 -.01376240  53155-3 -44900-2 0  9991
2 53628  53.2171 261.3216 0033887  56.2837 190.2759 15.89028968   881
STARLINK AT             
1 53629U 22104AT  22245.58334491 -.01376136  53121-3 -45032-2 0  9996
2 53629  53.2171 261.3225 0033784  56.3152 189.6031 15.88976372   884
STARLINK AU             
1 53630U 22104AU  22245.60318588 -.00644399  13564-3 -20385-2 0  9999
2 53630  53.2178 261.2157 0038200  59.2655 301.2126 15.89217433  1755
STARLINK AV             
1 53631U 22104AV  22245.58334491 -.01376225  53144-3 -44985-2 0  9999
2 53631  53.2171 261.3215 0033588  56.5132 189.8763 15.89009453   880
STARLINK AW             
1 53632U 22104AW  22245.58334491 -.01376364  53188-3 -44789-2 0  9994
2 53632  53.2171 261.3203 0033917  56.4754 190.8186 15.89077132   883
STARLINK AX             
1 53633U 22104AX  22246.25001157 -.01298088  47018-3 -47132-2 0  9996
2 53633  53.2176 257.9468 0026594  55.4907  45.4596 15.87284387   997
STARLINK AY             
1 53634U 22104AY  22246.25001157 -.01298049  47038-3 -46982-2 0  9998
2 53634  53.2176 257.9458 0026843  55.6749  46.0512 15.87336180   994
STARLINK AZ             
1 53635U 22104AZ  22245.58334491 -.01376436  53201-3 -44792-2 0  9997
2 53635  53.2171 261.3194 0033615  56.4909 191.0169 15.89094588   880
STARLINK BA             
1 53636U 22104BA  22245.58334491 -.01376517  53231-3 -44624-2 0  9995
2 53636  53.2171 261.3186 0034052  56.5082 191.7220 15.89143087   885
STARLINK BB             
1 53637U 22104BB  22245.58334491 -.01376553  53226-3 -44719-2 0  9995
2 53637  53.2171 261.3185 0033622  56.3271 191.6490 15.89127572   884
STARLINK BC             
1 53638U 22104BC  22246.25001157 -.01298134  47073-3 -46802-2 0  9997
2 53638  53.2176 257.9440 0027032  55.6792  47.0708 15.87405541   994
STARLINK BD             
1 53639U 22104BD  22246.25001157 -.01465030  58743-3 -52697-2 0  9994
2 53639  53.2179 257.9430 0026625  58.0976  44.3099 15.87498566   997
STARLINK BE             
1 53640U 22104BE  22245.58334491 -.01376588  53262-3 -44488-2 0  9990
2 53640  53.2171 261.3174 0034188  56.6327 192.2343 15.89195312   880
STARLINK BF             
1 53641U 22104BF  22245.58334491 -.01376676  53275-3 -44457-2 0  9999
2 53641  53.2171 261.3161 0034202  56.3809 192.7744 15.89209276   881
FALCON 9 DEB            
1 53642U 22104BG  22245.59244696  .00426363  89261-4  59397-3 0  9999
2 53642  53.2200 261.1523 0072039  63.4960 297.3436 16.00195022   889
FALCON 9 DEB            
1 53643U 22104BH  22245.59108294  .00272145  42471-4  38147-3 0  9992
2 53643  53.2189 261.1406 0068595  64.6121 296.1991 16.00606478   885
FALCON 9 DEB            
1 53644U 22104BJ  22245.58751469  .00450655  10096-3  58980-3 0  9998
2 53644  53.2177 261.1116 0066515  60.5776 300.1873 16.01844957   884
FALCON 9 DEB            
1 53645U 22104BK  22245.58682853  .00436636  95368-4  57117-3 0  9999
2 53645  53.2183 261.1062 0065755  61.8575 298.9081 16.01949998   895
2022-106A               
1 53698U 22106A   22246.25285162 -.00000048  00000+0  00000+0 0  9990
2 53698  98.1848 252.3694 0005520 244.8231 182.6342 14.62859723    45
2022-106B               
1 53699U 22106B   22246.30572297 -.00000074  00000+0  00000+0 0  9994
2 53699  98.2000 252.4612 0144232  50.7606 325.3848 14.91423874    45
